Account_Num,Facility Name,Address,City,State,ZIP Code,County Name,Phone Number,Hospital Type,Hospital Ownership
74801,GRANITE COUNTY MEDICAL CENTER,310 SANSOME ST,PHILIPSBURG,MT,59858,GRANITE,(406) 859-3271,Critical Access Hospitals,Government - Hospital District or Authority
85201,BETH ISRAEL DEACONESS MEDICAL CENTER,330 BROOKLINE AVENUE,BOSTON,MA,2215,SUFFOLK,(617) 667-7000,Acute Care Hospitals,Voluntary non-profit - Private
39735,POMONA VALLEY HOSPITAL MEDICAL CENTER,1798 N GAREY AVE,POMONA,CA,91767,LOS ANGELES,(909) 865-9500,Acute Care Hospitals,Voluntary non-profit - Private
73707,HEARTLAND REGIONAL MEDICAL CENTER,3333 W DEYOUNG,MARION,IL,62959,WILLIAMSON,(618) 998-7000,Acute Care Hospitals,Proprietary
89846,SACRED HEART HOSPITAL ON THE EMERALD COAST,7800 US HWY 98 W,MIRAMAR BEACH,FL,32550,WALTON,(850) 278-3600,Acute Care Hospitals,Voluntary non-profit - Other
87228,ST VINCENT HEALTHCARE,1233 N 30TH ST,BILLINGS,MT,59101,YELLOWSTONE,(406) 657-7000,Acute Care Hospitals,Voluntary non-profit - Church
40289,SPECTRUM HEALTH ZEELAND COMMUNITY HOSPITAL,8333 FELCH ST,ZEELAND,MI,49464,OTTAWA,(616) 772-4644,Acute Care Hospitals,Voluntary non-profit - Private
82334,WILLS EYE HOSPITAL,840 WALNUT STREET,PHILADELPHIA,PA,19107,PHILADELPHIA,(215) 440-3100,Acute Care Hospitals,Voluntary non-profit - Private
13455,FIELD HEALTH SYSTEM,178 HIGHWAY 24,CENTREVILLE,MS,39631,WILKINSON,(601) 890-0500,Critical Access Hospitals,Government - Local
14622,ELMIRA PSYCH CENTER,WASHINGTON ST,ELMIRA,NY,14901,CHEMUNG,(607) 737-4739,Psychiatric,Government - State
44710,FAYETTE COUNTY HOSPITAL,7TH AND TAYLOR,VANDALIA,IL,62471,FAYETTE,(618) 283-1231,Critical Access Hospitals,Voluntary non-profit - Other
68316,LIBERTY DAYTON REGIONAL MEDICAL CENTER,1353 N TRAVIS ST,LIBERTY,TX,77575,LIBERTY,(936) 336-7316,Critical Access Hospitals,Government - Hospital District or Authority
72406,MANIILAQ HEALTH CENTER,PO BOX 43,KOTZEBUE,AK,99752,NORTHWEST ARTIC BOROUGH,(907) 442-3321,Critical Access Hospitals,Tribal
42756,OCEANS BEHAVIORAL HOSPITAL OF ALEXANDRIA,2621 NORTH BOLTON AVENUE,ALEXANDRIA,LA,71303,RAPIDES,(318) 448-8473,Psychiatric,Proprietary
50666,HARRISON COUNTY COMMUNITY HOSPITAL,2600 MILLER STREET,BETHANY,MO,64424,HARRISON,(660) 425-0284,Critical Access Hospitals,Government - Hospital District or Authority
20060,GREAT RIVER MEDICAL CENTER,1520 N DIVISION STREET,BLYTHEVILLE,AR,72315,MISSISSIPPI,(870) 838-7300,Acute Care Hospitals,Government - Local
39631,OSF HOLY FAMILY MEDICAL CENTER,1000 W HARLEM AVENUE,MONMOUTH,IL,61462,WARREN,(309) 734-3141,Critical Access Hospitals,Voluntary non-profit - Church
55671,MAIMONIDES MEDICAL CENTER,4802 TENTH AVENUE,BROOKLYN,NY,11219,KINGS,(718) 283-6000,Acute Care Hospitals,Voluntary non-profit - Private
66323,FISHER COUNTY HOSPITAL DISTRICT,774 STATE HIGHWAY 70 N,ROTAN,TX,79546,FISHER,(325) 735-2256,Critical Access Hospitals,Government - Hospital District or Authority
13487,WAYNE COUNTY HOSPITAL,166 HOSPITAL STREET,MONTICELLO,KY,42633,WAYNE,(606) 348-9343,Critical Access Hospitals,Voluntary non-profit - Private
10493,PROVIDENCE HOLY CROSS MEDICAL CENTER,15031 RINALDI ST,MISSION HILLS,CA,91346,LOS ANGELES,(818) 365-8051,Acute Care Hospitals,Voluntary non-profit - Church
42078,KONA COMMUNITY HOSPITAL,79-1019 HAUKAPILA STREET,KEALAKEKUA,HI,96750,HAWAII,(808) 322-9311,Acute Care Hospitals,Government - State
24555,THE HEALTHCENTER,320 SUNNYVIEW LANE,KALISPELL,MT,59901,FLATHEAD,(406) 756-4720,Acute Care Hospitals,Proprietary
14383,RENOWN SOUTH MEADOWS MEDICAL CENTER,10101 DOUBLE R BLVD,RENO,NV,89521,WASHOE,(775) 982-7063,Acute Care Hospitals,Voluntary non-profit - Private
60258,MARSHALL MEDICAL CENTERS SOUTH CAMPUS,2505 U S HIGHWAY 431 NORTH,BOAZ,AL,35957,MARSHALL,(256) 593-8310,Acute Care Hospitals,Government - Hospital District or Authority
18105,THE MEDICAL CENTER OF SOUTHEAST TEXAS,2555 JIMMY JOHNSON BLVD,PORT ARTHUR,TX,77640,JEFFERSON,(409) 853-5900,Acute Care Hospitals,Physician
50746,MEDICAL BEHAVIORAL HOSPITAL - MISHAWAKA,1625 EAST JEFFERSON BLVD,MISHAWAKA,IN,46545,ST. JOSEPH,(574) 485-1703,Psychiatric,Proprietary
56567,BEAVER DAM COMMUNITY HOSPITAL,707 S UNIVERSITY AVE,BEAVER DAM,WI,53916,DODGE,(920) 887-7181,Acute Care Hospitals,Voluntary non-profit - Private
28556,CHRISTUS MOTHER FRANCES HOSPITAL- WINNSBORO,719 WEST COKE ROAD,WINNSBORO,TX,75494,WOOD,(903) 342-5227,Critical Access Hospitals,Voluntary non-profit - Private
10899,HARNEY DISTRICT HOSPITAL,557 W WASHINGTON STREET,BURNS,OR,97720,HARNEY,(541) 573-7281,Critical Access Hospitals,Government - Hospital District or Authority
60465,MEMORIAL HOSPITAL,715 SOUTH TAFT AVENUE,FREMONT,OH,43420,SANDUSKY,(419) 334-6617,Acute Care Hospitals,Voluntary non-profit - Other
31274,EMANUEL MEDICAL CENTER,117 KITE ROAD,SWAINSBORO,GA,30401,EMANUEL,(478) 289-1304,Acute Care Hospitals,Government - Hospital District or Authority
72343,MOCCASSIN BEND MENTAL HEALTH INSTITUTE,100 MOCCASIN BEND ROAD,CHATTANOOGA,TN,37405,HAMILTON,(423) 785-2271,Psychiatric,Government - State
84799,1st Medical Group (Langley AFB),633 MDG 77 Nealy Ave,Langley,VA,23665,HAMPTON CITY,(757) 225-7630,Acute Care - Department of Defense,Department of Defense
59224,BURGESS HEALTH CENTER,1600 DIAMOND STREET,ONAWA,IA,51040,MONONA,(712) 423-2311,Critical Access Hospitals,Voluntary non-profit - Private
64455,ST LUKE'S ELMORE MEDICAL CENTER,895 NORTH 6TH EAST,MOUNTAIN HOME,ID,83647,ELMORE,(208) 587-8401,Critical Access Hospitals,Voluntary non-profit - Private
24325,MERCY HOSPITAL TURNER MEMORIAL,801 WEST RIVER STREET,OZARK,AR,72949,FRANKLIN,(479) 667-4138,Critical Access Hospitals,Voluntary non-profit - Private
31883,MERCY HEALTH - SPRINGFIELD REGIONAL MEDICAL CENTER,100 MEDICAL CENTER DRIVE,SPRINGFIELD,OH,45504,CLARK,(937) 523-1000,Acute Care Hospitals,Voluntary non-profit - Private
78598,PARRISH MEDICAL CENTER,951 N WASHINGTON AVE,TITUSVILLE,FL,32796,BREVARD,(321) 268-6111,Acute Care Hospitals,Government - Hospital District or Authority
39670,BRISTOL REGIONAL MEDICAL CENTER,ONE MEDICAL PARK BLVD,BRISTOL,TN,37620,SULLIVAN,(423) 844-1121,Acute Care Hospitals,Government - Hospital District or Authority
19349,HILLCREST HOSPITAL,6780 MAYFIELD ROAD,MAYFIELD HEIGHTS,OH,44124,CUYAHOGA,(440) 312-4500,Acute Care Hospitals,Voluntary non-profit - Private
42309,NORTHERN WESTCHESTER HOSPITAL,400 EAST MAIN STREET,MOUNT KISCO,NY,10549,WESTCHESTER,(914) 666-1200,Acute Care Hospitals,Voluntary non-profit - Private
72925,ASCENSION BORGESS LEE HOSPITAL,420 W HIGH ST,DOWAGIAC,MI,49047,CASS,(269) 782-8681,Critical Access Hospitals,Voluntary non-profit - Church
23272,HOLY CROSS HOSPITAL,1500 FOREST GLEN ROAD,SILVER SPRING,MD,20910,MONTGOMERY,(301) 754-7000,Acute Care Hospitals,Voluntary non-profit - Church
21058,UPMC MERCY,1400 LOCUST STREET,PITTSBURGH,PA,15219,ALLEGHENY,(412) 232-8111,Acute Care Hospitals,Voluntary non-profit - Private
81842,DUPONT HOSPITAL LLC,2520 E DUPONT RD,FORT WAYNE,IN,46825,ALLEN,(260) 416-3000,Acute Care Hospitals,Proprietary
90719,"CORPUS CHRISTI MEDICAL CENTER,THE",6629 WOODRIDGE ROAD,CORPUS CHRISTI,TX,78414,NUECES,(361) 761-1501,Acute Care Hospitals,Proprietary
57118,WISE HEALTH SYSTEM,3200 NORTH TARRANT PARKWAY,FORT WORTH,TX,76177,TARRANT,(817) 502-7300,Acute Care Hospitals,Government - Hospital District or Authority
21002,TEXAS HEALTH CENTER FOR DIAGNOSTICS & SURGERY PLAN,6020 W PARKER ROAD,PLANO,TX,75093,COLLIN,(972) 403-2700,Acute Care Hospitals,Proprietary
92003,HUNTINGTON BEACH HOSPITAL,17772 BEACH BLVD,HUNTINGTON BEACH,CA,92647,ORANGE,(714) 843-5000,Acute Care Hospitals,Proprietary
88278,G WERBER BRYAN PSYCH HOSP,220 FAISON DR,COLUMBIA,SC,29203,RICHLAND,(803) 935-7143,Psychiatric,Government - State
87434,SAN DIMAS COMMUNITY HOSPITAL,1350 W COVINA BLVD,SAN DIMAS,CA,91773,LOS ANGELES,(909) 599-6811,Acute Care Hospitals,Proprietary
17809,PARADISE VALLEY HOSPITAL,2400 EAST 4TH ST,NATIONAL CITY,CA,91950,SAN DIEGO,(619) 470-4321,Acute Care Hospitals,Proprietary
82364,REGIONAL MEDICAL CENTER OF CENTRAL ALABAMA,29 L V STABLER DRIVE,GREENVILLE,AL,36037,BUTLER,(334) 382-2200,Acute Care Hospitals,Proprietary
48917,ST LUKE'S HOSPITAL,702 1ST ST SW,CROSBY,ND,58730,DIVIDE,(701) 965-6384,Critical Access Hospitals,Voluntary non-profit - Private
23933,FITZGIBBON HOSPITAL,2305 S 65 HIGHWAY,MARSHALL,MO,65340,SALINE,(660) 886-7431,Acute Care Hospitals,Voluntary non-profit - Private
61469,CATAWBA VALLEY MEDICAL CENTER,810 FAIRGROVE CHURCH RD,HICKORY,NC,28602,CATAWBA,(828) 326-3809,Acute Care Hospitals,Voluntary non-profit - Other
63859,THOMAS B FINAN CENTER,"10102 COUNTRY CLUB ROAD,  POST OFFICE BOX 1722",CUMBERLAND,MD,21502,ALLEGANY,(301) 777-2240,Psychiatric,Government - Local
18033,WAYNE COUNTY HOSPITAL,417 SOUTH EAST STREET,CORYDON,IA,50060,WAYNE,(641) 872-2260,Critical Access Hospitals,Government - Local
19127,COLUMBIA MEMORIAL HOSPITAL,71 PROSPECT AVENUE,HUDSON,NY,12534,COLUMBIA,(518) 828-7601,Acute Care Hospitals,Voluntary non-profit - Private
28792,"GUIDANCE CENTER, THE",2187 NORTH VICKEY STREET,FLAGSTAFF,AZ,86004,COCONINO,(928) 527-1899,Psychiatric,Voluntary non-profit - Private
56284,CHRISTUS SANTA ROSA MEDICAL CENTER,2827 BABCOCK ROAD,SAN ANTONIO,TX,78229,BEXAR,(210) 704-3342,Acute Care Hospitals,Voluntary non-profit - Church
42263,NESHOBA COUNTY GENERAL HOSPITAL,1001 HOLLAND AVENUE,PHILADELPHIA,MS,39350,NESHOBA,(601) 663-1200,Acute Care Hospitals,Government - Local
53791,BANNER CHURCHILL COMMUNITY HOSPITAL,801 EAST WILLIAMS AVENUE,FALLON,NV,89406,CHURCHILL,(775) 423-3151,Critical Access Hospitals,Voluntary non-profit - Private
26031,KIMBALL HEALTH SERVICES,505 SOUTH BURG ST,KIMBALL,NE,69145,KIMBALL,(308) 235-1951,Critical Access Hospitals,Government - Local
18098,LANE REGIONAL MEDICAL CENTER,6300 MAIN STREET,ZACHARY,LA,70791,E. BATON ROUGE,(225) 658-4000,Acute Care Hospitals,Government - Hospital District or Authority
12028,PRESBYTERIAN COMMUNITY HOSP,1451 ASHFORD AVENUE,SAN JUAN,PR,907,SAN JUAN,(787) 721-2160,Acute Care Hospitals,Voluntary non-profit - Other
67017,COLLEGE STATION MEDICAL CENTER,1604 ROCK PRAIRIE ROAD,COLLEGE STATION,TX,77842,BRAZOS,(979) 764-5151,Acute Care Hospitals,Proprietary
75608,RIVERSIDE METHODIST HOSPITAL,3535 OLENTANGY RIVER RD,COLUMBUS,OH,43214,FRANKLIN,(614) 566-5000,Acute Care Hospitals,Voluntary non-profit - Private
17034,PHILHAVEN HOSPITAL,283 SOUTH BUTLER ROAD,MT GRETNA,PA,17064,LEBANON,(717) 273-8871,Psychiatric,Voluntary non-profit - Church
10692,ST VINCENT WARRICK,1116 MILLIS AVE,BOONVILLE,IN,47601,WARRICK,(812) 897-4800,Critical Access Hospitals,Voluntary non-profit - Private
26620,CASS REGIONAL MEDICAL CENTER,2800 E ROCK HAVEN ROAD,HARRISONVILLE,MO,64701,CASS,(816) 380-5888,Critical Access Hospitals,Government - Local
82875,ATRIUM HEALTH ANSON,2301 US HIGHWAY 74 WEST,WADESBORO,NC,28170,ANSON,(704) 694-5131,Acute Care Hospitals,Government - Hospital District or Authority
52234,BAYLOR SCOTT AND WHITE EMERGENCY HOSPITAL AUBREY,26791 HIGHWAY 380,AUBREY,TX,76227,DENTON,(972) 347-2525,Acute Care Hospitals,Proprietary
62030,OWENSBORO HEALTH MUHLENBERG COMMUNITY HOSPITAL,440 HOPKINSVILLE STREET,GREENVILLE,KY,42345,MUHLENBERG,(270) 338-8000,Acute Care Hospitals,Voluntary non-profit - Private
82138,HIGHLANDS CASHIERS HOSPITAL,190 HOSPITAL DRIVE,HIGHLANDS,NC,28741,MACON,(828) 526-1200,Critical Access Hospitals,Voluntary non-profit - Private
70194,BAYLOR SCOTT & WHITE MEDICAL CENTER -TAYLOR,305 MALLARD,TAYLOR,TX,76574,WILLIAMSON,(512) 352-7611,Critical Access Hospitals,Voluntary non-profit - Private
82633,CARSON TAHOE REGIONAL MEDICAL CENTER,1600 MEDICAL PARKWAY,CARSON CITY,NV,89703,CARSON CITY,(775) 445-8000,Acute Care Hospitals,Voluntary non-profit - Private
71348,QUEEN OF THE VALLEY MEDICAL CENTER,1000 TRANCAS ST,NAPA,CA,94558,NAPA,(707) 252-4411,Acute Care Hospitals,Voluntary non-profit - Church
33241,GENESIS MEDICAL CENTER-DEWITT,1118 11TH STREET,DEWITT,IA,52742,CLINTON,(563) 659-4200,Critical Access Hospitals,Voluntary non-profit - Private
78219,WELLSTAR PAULDING HOSPITAL,2518 JIMMY LEE SMITH PARKWAY,HIRAM,GA,30141,PAULDING,(470) 644-7000,Acute Care Hospitals,Voluntary non-profit - Other
34147,UNITYPOINT HEALTH-MARSHALLTOWN,3 S 4TH AVE,MARSHALLTOWN,IA,50158,MARSHALL,(641) 754-5151,Acute Care Hospitals,Voluntary non-profit - Private
93110,LANSDALE HOSPITAL,100 MEDICAL CAMPUS DRIVE,LANSDALE,PA,19446,MONTGOMERY,(215) 368-2100,Acute Care Hospitals,Voluntary non-profit - Other
64746,PROVIDENCE MEDICAL CENTER,1200 PROVIDENCE RD,WAYNE,NE,68787,WAYNE,(402) 375-3800,Critical Access Hospitals,Voluntary non-profit - Private
60925,GUNDERSEN ST JOSEPHS HOSPITAL AND CLINICS,400 WATER AVE,HILLSBORO,WI,54634,VERNON,(608) 489-8000,Critical Access Hospitals,Voluntary non-profit - Private
92530,BRONX-LEBANON HOSPITAL CENTER,1276 FULTON AVENUE,BRONX,NY,10456,BRONX,(212) 588-7000,Acute Care Hospitals,Proprietary
58670,LASALLE GENERAL HOSPITAL,187 NINTH ST/HWY 84 WEST,JENA,LA,71342,LASALLE,(318) 992-9200,Acute Care Hospitals,Government - Hospital District or Authority
80126,ASPEN HILLS HEALTHCARE CENTER,600 PEMBERTON-BROWNS MILLS ROAD,PEMBERTON,NJ,8068,BURLINGTON,(609) 836-6100,Psychiatric,Proprietary
88440,"PORTER HOSPITAL, INC",115 PORTER DRIVE,MIDDLEBURY,VT,5753,ADDISON,(802) 388-4701,Critical Access Hospitals,Voluntary non-profit - Private
30465,UNIVERSITY HOSPITALS - ELYRIA MEDICAL CENTER,630 EAST RIVER STREET,ELYRIA,OH,44035,LORAIN,(440) 329-7500,Acute Care Hospitals,Voluntary non-profit - Private
37355,"ARKANSAS CHILDREN'S NORTHWEST, INC",2601 GENE GEORGE BOULEVARD,SPRINGDALE,AR,72762,WASHINGTON,(479) 725-6800,Childrens,Voluntary non-profit - Private
78048,CANTON-POTSDAM HOSPITAL,50 LEROY STREET,POTSDAM,NY,13676,ST. LAWRENCE,(315) 265-3300,Acute Care Hospitals,Voluntary non-profit - Private
89294,FRANKLIN REGIONAL HOSPITAL,15 AIKEN AVENUE,FRANKLIN,NH,3235,MERRIMACK,(603) 934-2060,Critical Access Hospitals,Voluntary non-profit - Private
35391,KAUAI VETERANS MEMORIAL HOSPITAL,4643 WAIMEA CANYON DRIVE,WAIMEA,HI,96796,KAUAI,(808) 338-9431,Critical Access Hospitals,Government - State
42255,CONWAY REGIONAL HEALTH SYSTEM,2302 COLLEGE AVENUE,CONWAY,AR,72034,FAULKNER,(501) 329-3831,Acute Care Hospitals,Voluntary non-profit - Private
21828,ADVENTIST HEALTH SONORA,1000 GREENLEY ROAD,SONORA,CA,95370,TUOLUMNE,(209) 536-5000,Acute Care Hospitals,Voluntary non-profit - Church
88941,DEKALB REGIONAL MEDICAL CENTER,200 MED CENTER DRIVE,FORT PAYNE,AL,35968,DE KALB,(256) 845-3150,Acute Care Hospitals,Proprietary
94307,MEMORIAL HERMANN KATY HOSPITAL,23900 KATY FREEWAY,KATY,TX,77494,FORT BEND,(281) 392-1111,Acute Care Hospitals,Voluntary non-profit - Private
60085,SOUTH MIAMI HOSPITAL,6200 SW 73RD ST,SOUTH MIAMI,FL,33143,MIAMI-DADE,(786) 662-4000,Acute Care Hospitals,Voluntary non-profit - Private
14010,NATIONAL PARK MEDICAL CENTER,1910 MALVERN AVENUE,HOT SPRINGS,AR,71901,GARLAND,(501) 321-1000,Acute Care Hospitals,Proprietary
23451,PROVIDENCE MEDFORD MEDICAL CENTER,1111 CRATER LAKE AVENUE,MEDFORD,OR,97504,JACKSON,(541) 732-5050,Acute Care Hospitals,Voluntary non-profit - Church
82415,AURORA WEST ALLIS MEDICAL CENTER,8901 W LINCOLN AVE,WEST ALLIS,WI,53227,MILWAUKEE,(414) 328-6000,Acute Care Hospitals,Voluntary non-profit - Private
21273,PROVIDENCE ST JOSEPH HOSPITAL,500 EAST WEBSTER,CHEWELAH,WA,99109,STEVENS,(509) 935-8211,Critical Access Hospitals,Voluntary non-profit - Church
70958,"MEDICAL WEST, AN AFFILIATE OF UAB HEALTH SYSTEM",995 9TH AVENUE SOUTHWEST,BESSEMER,AL,35021,JEFFERSON,(205) 481-7000,Acute Care Hospitals,Government - Hospital District or Authority
23988,COMMUNITY HOSPITAL OF THE MONTEREY PENINSULA,23625 W R HOLMAN HIGHWAY,MONTEREY,CA,93940,MONTEREY,(831) 624-5311,Acute Care Hospitals,Voluntary non-profit - Private
88716,HOLLY HILL MENTAL HEALTH SERVICES,3019 FALSTAFF RD,RALEIGH,NC,27610,WAKE,(919) 250-7000,Psychiatric,Proprietary
21949,CHI ST ALEXIUS HEALTH DICKINSON,2500 FAIRWAY STREET,DICKINSON,ND,58601,STARK,(701) 456-4000,Critical Access Hospitals,Voluntary non-profit - Church
64309,MOUNT PLEASANT HOSPITAL,3510 HIGHWAY 17 NORTH SUITE 140,MOUNT PLEASANT,SC,29466,CHARLESTON,(843) 724-2954,Acute Care Hospitals,Voluntary non-profit - Private
17363,STRATEGIC BEHAVIORAL CENTER-CHARLOTTE,1715 SHARON ROAD WEST,CHARLOTTE,NC,28210,MECKLENBURG,(704) 944-0650,Psychiatric,Proprietary
26560,KETCHIKAN MEDICAL CENTER,3100 TONGASS AVENUE,KETCHIKAN,AK,99901,KETCHIKAN GATEWAY,(907) 225-5171,Critical Access Hospitals,Voluntary non-profit - Church
31462,COLLEGE HOSPITAL COSTA MESA,301 VICTORIA STREET,COSTA MESA,CA,92627,ORANGE,(949) 642-2734,Acute Care Hospitals,Proprietary
83263,PATRICK B HARRIS PSYCHIATRIC HOSPITAL,130 HIGHWAY 252,ANDERSON,SC,29622,ANDERSON,(803) 231-2600,Psychiatric,Government - State
90476,ADVENTHEALTH DADE CITY,13100 FT KING RD,DADE CITY,FL,33525,PASCO,(352) 568-3174,Acute Care Hospitals,Proprietary
59852,BARSTOW COMMUNITY HOSPITAL,820 E MOUNTAIN VIEW STREET,BARSTOW,CA,92311,SAN BERNARDINO,(760) 256-1761,Acute Care Hospitals,Proprietary
63076,CLINCH VALLEY MEDICAL CENTER,6801 GOVERNOR GC PERRY HIGHWAY,RICHLANDS,VA,24641,TAZEWELL,(276) 596-6000,Acute Care Hospitals,Proprietary
12867,HARDIN MEDICAL CENTER,935 WAYNE ROAD,SAVANNAH,TN,38372,HARDIN,(731) 926-8121,Acute Care Hospitals,Government - Local
46286,CHRIST HOSPITAL,2139 AUBURN AVENUE,CINCINNATI,OH,45219,HAMILTON,(513) 585-2000,Acute Care Hospitals,Voluntary non-profit - Private
43030,BUTLER COUNTY HEALTH CARE CENTER,372 SOUTH 9TH ST,DAVID CITY,NE,68632,BUTLER,(402) 367-1200,Critical Access Hospitals,Government - Local
61077,ELLENVILLE REGIONAL HOSPITAL,10 HEALTHY WAY,ELLENVILLE,NY,12428,ULSTER,(845) 647-6400,Critical Access Hospitals,Voluntary non-profit - Private
70589,SPRINGFIELD HOSPITAL CENTER,6655 SYKESVILLE ROAD,SYKESVILLE,MD,21784,CARROLL,(410) 970-7000,Psychiatric,Government - State
14880,"DELAWARE VALLEY HOSPITAL, INC",1 TITUS PLACE,WALTON,NY,13856,DELAWARE,(607) 865-2188,Critical Access Hospitals,Voluntary non-profit - Private
63509,MULTICARE AUBURN MEDICAL CENTER,202 NORTH DIVISION STREET PLAZA ONE,AUBURN,WA,98001,KING,(253) 833-7711,Acute Care Hospitals,Voluntary non-profit - Private
76421,GREEN OAKS HOSPITAL,7808 CLODUS FIELDS DRIVE,DALLAS,TX,75251,DALLAS,(972) 991-9504,Psychiatric,Voluntary non-profit - Other
15928,CHRISTUS ST MICHAEL HEALTH SYSTEM,2600 ST MICHAEL DR,TEXARKANA,TX,75504,BOWIE,(903) 614-1000,Acute Care Hospitals,Voluntary non-profit - Church
42760,TARZANA TREATMENT CENTER,18646 OXNARD STREET,TARZANA,CA,91356,LOS ANGELES,(818) 996-1051,Psychiatric,Voluntary non-profit - Private
88731,CHRISTUS SOUTHEAST TEXAS- ST ELIZABETH,2830 CALDER AVENUE,BEAUMONT,TX,77702,JEFFERSON,(409) 892-7171,Acute Care Hospitals,Voluntary non-profit - Private
53145,THE HEART HOSPITAL BAYLOR DENTON,2801 SOUTH MAYHILL ROAD,DENTON,TX,76208,DENTON,(940) 220-0600,Acute Care Hospitals,Physician
53409,RED LAKE HOSPITAL A,PO BOX 497,REDLAKE,MN,56671,BELTRAMI,(218) 679-3912,Acute Care Hospitals,Government - Federal
62424,MCGEHEE HOSPITAL,900 SOUTH THIRD STREET,MCGEHEE,AR,71654,DESHA,(870) 222-5600,Critical Access Hospitals,Voluntary non-profit - Private
77736,METHODIST HOSPITAL OF SACRAMENTO,7500 HOSPITAL DRIVE,SACRAMENTO,CA,95823,SACRAMENTO,(916) 423-6010,Acute Care Hospitals,Voluntary non-profit - Private
43533,LAKE HEALTH,7590 AUBURN ROAD,CONCORD,OH,44077,LAKE,(440) 953-9600,Acute Care Hospitals,Voluntary non-profit - Private
62814,KOSSUTH REGIONAL HEALTH CENTER,1515 SOUTH PHILLIPS STREET,ALGONA,IA,50511,KOSSUTH,(515) 295-2451,Critical Access Hospitals,Government - Local
43858,TRACE REGIONAL HOSP AND SWING BED,1002 EAST MADISON STREET,HOUSTON,MS,38851,CHICKASAW,(662) 456-3700,Acute Care Hospitals,Proprietary
35557,RIVERSIDE REGIONAL MEDICAL CENTER,500 J CLYDE MORRIS BLVD,NEWPORT NEWS,VA,23601,NEWPORT NEWS CITY,(757) 594-2000,Acute Care Hospitals,Voluntary non-profit - Private
13594,CLAY COUNTY HOSPITAL,911 STACY BURK DRIVE,FLORA,IL,62839,CLAY,(618) 662-2131,Critical Access Hospitals,Government - Local
19057,SSM HEALTH ST ANTHONY HOSPITAL - OKLAHOMA CITY,1000 NORTH LEE AVENUE,OKLAHOMA CITY,OK,73101,OKLAHOMA,(405) 272-7000,Acute Care Hospitals,Voluntary non-profit - Church
61372,AURORA SAN DIEGO,11878 AVENUE OF INDUSTRY,SAN DIEGO,CA,92128,SAN DIEGO,(858) 487-3200,Psychiatric,Proprietary
32527,MEMORIALCARE ORANGE COAST MEDICAL CENTER,9920 TALBERT AVENUE,FOUNTAIN VALLEY,CA,92708,ORANGE,(714) 378-7406,Acute Care Hospitals,Proprietary
71109,YALE-NEW HAVEN HOSPITAL,20 YORK ST,NEW HAVEN,CT,6504,NEW HAVEN,(203) 688-4242,Acute Care Hospitals,Voluntary non-profit - Private
42379,UPMC HORIZON,110 NORTH MAIN STREET,GREENVILLE,PA,16125,MERCER,(724) 588-2100,Acute Care Hospitals,Voluntary non-profit - Private
43541,BROOKLYN HOSPITAL CENTER - DOWNTOWN CAMPUS,121 DEKALB AVENUE,BROOKLYN,NY,11201,KINGS,(718) 250-8000,Acute Care Hospitals,Voluntary non-profit - Private
60274,CENTRAL TEXAS MEDICAL CENTER,1301 WONDER WORLD DRIVE,SAN MARCOS,TX,78666,HAYS,(512) 753-3690,Acute Care Hospitals,Voluntary non-profit - Private
50969,ST LUKE'S CORNWALL HOSPITAL,70 DUBOIS STREET,NEWBURGH,NY,12550,ORANGE,(845) 561-4400,Acute Care Hospitals,Voluntary non-profit - Other
10297,NORTH SUNFLOWER MEDICAL CENTER CAH,840 NORTH OAK AVENUE,RULEVILLE,MS,38771,SUNFLOWER,(662) 756-2711,Critical Access Hospitals,Government - Local
80883,PLANTATION GENERAL HOSPITAL,401 NW 42ND AVE,PLANTATION,FL,33317,BROWARD,(954) 587-5010,Acute Care Hospitals,Voluntary non-profit - Private
53639,"SAINT ALPHONSUS MEDICAL CENTER - ONTARIO, INC",351 SW 9TH STREET,ONTARIO,OR,97914,MALHEUR,(541) 881-7000,Acute Care Hospitals,Voluntary non-profit - Church
87316,TANNER MEDICAL CENTER-EAST ALABAMA,1032 MAIN STREET SOUTH,WEDOWEE,AL,36278,RANDOLPH,(256) 357-2111,Critical Access Hospitals,Government - Hospital District or Authority
20901,MORRIS HOSPITAL & HEALTHCARE CENTERS,150 W HIGH ST,MORRIS,IL,60450,GRUNDY,(815) 942-2932,Acute Care Hospitals,Voluntary non-profit - Private
59998,BANNER BEHAVIORAL HEALTH HOSPITAL,7575 EAST EARLL DRIVE,SCOTTSDALE,AZ,85251,MARICOPA,(480) 448-7500,Psychiatric,Voluntary non-profit - Private
30777,LAKE GRANBURY MEDICAL CENTER,1310 PALUXY RD,GRANBURY,TX,76048,HOOD,(817) 573-2683,Acute Care Hospitals,Proprietary
46078,OCEAN BEACH HOSPITAL,174 FIRST AVENUE NORTH,ILWACO,WA,98624,PACIFIC,(360) 642-3181,Critical Access Hospitals,Government - State
36833,PARMA COMMUNITY GENERAL HOSPITAL,7007 POWERS BOULEVARD,PARMA,OH,44129,CUYAHOGA,(440) 743-3000,Acute Care Hospitals,Voluntary non-profit - Private
77346,KAISER FOUNDATION HOSPITAL,3288 MOANALUA RD,HONOLULU,HI,96819,HONOLULU,(808) 432-0000,Acute Care Hospitals,Voluntary non-profit - Private
52034,GREENFIELD AREA MEDICAL CENTER,550 MIRABEAU STREET,GREENFIELD,OH,45123,HIGHLAND,(937) 981-9400,Critical Access Hospitals,Voluntary non-profit - Private
82299,GARDEN CITY HOSPITAL,6245 INKSTER RD,GARDEN CITY,MI,48135,WAYNE,(734) 421-3300,Acute Care Hospitals,Voluntary non-profit - Private
84066,GARRETT COUNTY MEMORIAL HOSPITAL,251 NORTH  FOURTH STREET,OAKLAND,MD,21550,GARRETT,(301) 533-4173,Acute Care Hospitals,Voluntary non-profit - Private
41469,EFFINGHAM HEALTH SYSTEM,459 GA HIGHWAY 119 SOUTH,SPRINGFIELD,GA,31329,EFFINGHAM,(912) 754-0160,Critical Access Hospitals,Government - Hospital District or Authority
71435,UCHEALTH PIKES PEAK REGIONAL HOSPITAL,16420 WEST HIGHWAY 24,WOODLAND PARK,CO,80863,TELLER,(719) 687-9999,Critical Access Hospitals,Voluntary non-profit - Private
64240,N Y EYE AND EAR INFIRMARY,230 SECOND AVE,NEW YORK,NY,10003,NEW YORK,(212) 979-4000,Acute Care Hospitals,Voluntary non-profit - Private
58667,AURORA MEDICAL CENTER SUMMIT,36500 AURORA DRIVE,SUMMIT,WI,53066,WAUKESHA,(262) 434-1000,Acute Care Hospitals,Voluntary non-profit - Private
62707,NORTHERN LIGHT A R GOULD HOSPITAL,PO BOX 151,PRESQUE ISLE,ME,4769,AROOSTOOK,(207) 768-4000,Acute Care Hospitals,Voluntary non-profit - Private
24307,CONNECTICUT MENTAL HEALTH CENTER,34 PARK STREET,NEW HAVEN,CT,6508,NEW HAVEN,(203) 974-3000,Psychiatric,Government - State
63118,FAIRMONT REGIONAL MEDICAL CENTER,1325 LOCUST AVENUE,FAIRMONT,WV,26554,MARION,(304) 367-7100,Acute Care Hospitals,Voluntary non-profit - Private
73269,FRANCISCAN HEALTH OLYMPIA & CHICAGO HEIGHTS,20201 S CRAWFORD AVENUE,OLYMPIA FIELDS,IL,60461,COOK,(708) 747-4000,Acute Care Hospitals,Voluntary non-profit - Church
44467,UNITYPOINT HEALTH - MERITER,202 S PARK ST,MADISON,WI,53715,DANE,(608) 417-6000,Acute Care Hospitals,Voluntary non-profit - Private
91056,MEDICAL CITY ARLINGTON,3301 MATLOCK ROAD,ARLINGTON,TX,76015,TARRANT,(817) 465-3241,Acute Care Hospitals,Proprietary
82609,ST LUKE'S SUGAR LAND HOSPITAL,1317 LAKE POINTE PARKWAY,SUGAR LAND,TX,77478,FORT BEND,(281) 637-7000,Acute Care Hospitals,Voluntary non-profit - Private
84590,PULLMAN REGIONAL HOSPITAL,835 S BISHOP BLVD,PULLMAN,WA,99163,WHITMAN,(509) 332-2541,Critical Access Hospitals,Government - Hospital District or Authority
15277,CALIFORNIA HOSPITAL MEDICAL CENTER LA,1401 SOUTH GRAND AVENUE,LOS ANGELES,CA,90015,LOS ANGELES,(213) 748-2411,Acute Care Hospitals,Voluntary non-profit - Other
87364,PUNXSUTAWNEY AREA HOSPITAL,81 HILLCREST DRIVE,PUNXSUTAWNEY,PA,15767,JEFFERSON,(814) 938-1800,Acute Care Hospitals,Voluntary non-profit - Private
13166,Bayne-Jones ACH (Ft Polk),1585 3rd Street Fort Polk,Fort Polk,LA,71459,VERNON,(337) 531-3118,Acute Care - Department of Defense,Department of Defense
70482,THE MONROE CLINIC,2005 5TH STREET,MONROE,WI,53566,GREEN,(608) 324-1000,Acute Care Hospitals,Voluntary non-profit - Private
80800,GREATER BINGHAMTON HEALTH CENTER,425 ROBINSON ST,BINGHAMTON,NY,13901,BROOME,(607) 724-1391,Psychiatric,Government - Local
34044,ELKHART GENERAL HOSPITAL,600 E BLVD,ELKHART,IN,46514,ELKHART,(574) 294-2621,Acute Care Hospitals,Government - Local
51224,JACKSON PURCHASE MEDICAL CENTER,1099 MEDICAL CENTER CIRCLE,MAYFIELD,KY,42066,GRAVES,(270) 251-4585,Acute Care Hospitals,Government - Hospital District or Authority
85546,LORING HOSPITAL,211 HIGHLAND AVENUE PO BOX 217,SAC CITY,IA,50583,SAC,(712) 662-7105,Critical Access Hospitals,Voluntary non-profit - Private
43838,"BEACON BEHAVIORAL HOSPITAL- NEW ORLEANS, INC",14500 HAYNES BLVD,NEW ORLEANS,LA,70128,ORLEANS,(504) 210-0460,Psychiatric,Proprietary
32903,ROOKS COUNTY HEALTH CENTER,1210 NORTH WASHINGTON,PLAINVILLE,KS,67663,ROOKS,(785) 434-4553,Critical Access Hospitals,Government - Hospital District or Authority
81222,ROXBURY TREATMENT CENTER,601 ROXBURY ROAD,SHIPPENSBURG,PA,17257,CUMBERLAND,(717) 532-4217,Psychiatric,Proprietary
36809,HANCOCK COUNTY HOSPITAL,1519 MAIN STREET HWY 33,SNEEDVILLE,TN,37869,HANCOCK,(423) 733-5001,Critical Access Hospitals,Voluntary non-profit - Private
69162,SAINT LUKE'S EAST HOSPITAL,100 N E SAINT LUKE'S BOULEVARD,LEES SUMMIT,MO,64086,JACKSON,(816) 347-5000,Acute Care Hospitals,Voluntary non-profit - Private
15434,CHI-ST VINCENT INFIRMARY,TWO ST VINCENT CIRCLE,LITTLE ROCK,AR,72205,PULASKI,(501) 552-3000,Acute Care Hospitals,Voluntary non-profit - Private
52313,REGIONAL MEDICAL CENTER OF SAN JOSE,225 N JACKSON AVENUE,SAN JOSE,CA,95116,SANTA CLARA,(408) 259-5000,Acute Care Hospitals,Government - Federal
65402,THOREK MEMORIAL HOSPITAL,850 W IRVING PARK RD,CHICAGO,IL,60613,COOK,(312) 525-6780,Acute Care Hospitals,Voluntary non-profit - Private
54247,DELANO REGIONAL MEDICAL CENTER,1401 GARCES HIGHWAY,DELANO,CA,93215,KERN,(661) 725-4800,Acute Care Hospitals,Proprietary
67648,ONECORE HEALTH,"1044 SW 44TH, SUITE 350",OKLAHOMA CITY,OK,73109,OKLAHOMA,(405) 631-3085,Acute Care Hospitals,Voluntary non-profit - Other
31829,MERCY MEDICAL CTR,271 CAREW STREET,SPRINGFIELD,MA,1104,HAMPDEN,(413) 748-9000,Acute Care Hospitals,Voluntary non-profit - Private
85366,ST JOSEPH MERCY OAKLAND,44405 WOODWARD AVE,PONTIAC,MI,48341,OAKLAND,(248) 858-3000,Acute Care Hospitals,Voluntary non-profit - Private
66561,BAYLOR SCOTT AND WHITE MEDICAL CENTER CARROLLTON,4343 NORTH JOSEY LANE,CARROLLTON,TX,75010,DENTON,(972) 394-2255,Acute Care Hospitals,Proprietary
12112,UP HEALTH SYSTEM - MARQUETTE,850 W BARAGA AVE,MARQUETTE,MI,49855,MARQUETTE,(906) 228-9440,Acute Care Hospitals,Government - Local
29931,OVERLOOK MEDICAL CENTER,99 BEAUVOIR AVENUE,SUMMIT,NJ,7902,UNION,(908) 522-2000,Acute Care Hospitals,Voluntary non-profit - Other
81930,BAPTIST MEDICAL CENTER-YAZOO,823 GRAND AVENUE,YAZOO CITY,MS,39194,YAZOO,(662) 746-2261,Critical Access Hospitals,Voluntary non-profit - Private
92977,INOVA FAIR OAKS HOSPITAL,3600 JOSEPH SIEWICK DRIVE,FAIRFAX,VA,22033,FAIRFAX,(703) 391-4170,Acute Care Hospitals,Voluntary non-profit - Other
93054,YUKON KUSKOKWIM DELTA REG HOSPITAL,PO BOX 287,BETHEL,AK,99559,BETHEL,(907) 543-6300,Acute Care Hospitals,Tribal
87677,VERMILION BEHAVIORAL HEALTH SYSTEMS,2520 N UNIVERSITY AVENUE,LAFAYETTE,LA,70507,LAFAYETTE,(337) 234-5614,Psychiatric,Proprietary
49883,STEPHENS COUNTY HOSPITAL,163 HOSPITAL DRIVE,TOCCOA,GA,30577,STEPHENS,(706) 282-4250,Acute Care Hospitals,Government - Hospital District or Authority
38341,PHYSICIAN'S CARE SURGICAL HOSPITAL,454 ENTERPRISE DRIVE,ROYERSFORD,PA,19468,MONTGOMERY,(610) 495-4793,Acute Care Hospitals,Physician
79635,SOUTHWEST MEDICAL CENTER,315 WEST 15TH STREET,LIBERAL,KS,67901,SEWARD,(620) 629-6291,Acute Care Hospitals,Government - Local
92465,SAN LUKE'S MEMORIAL HOSPITAL INC,TITO CASTRO AVE #917,PONCE,PR,733,PONCE,(787) 844-2080,Acute Care Hospitals,Voluntary non-profit - Church
51360,RIVERVIEW HOSPITAL,323 SOUTH MINNESOTA,CROOKSTON,MN,56716,POLK,(218) 281-9200,Critical Access Hospitals,Voluntary non-profit - Private
72779,ANDERSON RMC SOUTH,1102 CONSTITUTION AVENUE,MERIDIAN,MS,39301,LAUDERDALE,(601) 484-3590,Acute Care Hospitals,Proprietary
20545,MERIT HEALTH WOMEN'S HOSPITAL,1026 RIVER OAKS DRIVE,FLOWOOD,MS,39232,RANKIN,(601) 932-1000,Acute Care Hospitals,Proprietary
49236,NORTHCREST MEDICAL CENTER,100 NORTHCREST DRIVE,SPRINGFIELD,TN,37172,ROBERTSON,(615) 384-2411,Acute Care Hospitals,Voluntary non-profit - Other
88273,OSAGE BEACH CENTER FOR COGNITIVE DISORDERS,840 PASSOVER ROAD,OSAGE BEACH,MO,65065,CAMDEN,(573) 302-0319,Psychiatric,Proprietary
18914,JOHN C STENNIS MEMORIAL HOSPITAL,14365 HIGHWAY 16 WEST,DE KALB,MS,39328,KEMPER,(769) 486-1000,Critical Access Hospitals,Voluntary non-profit - Private
79434,NORRISTOWN STATE HOSPITAL,1001 STERIGERE STREET,NORRISTOWN,PA,19401,MONTGOMERY,(610) 313-1000,Psychiatric,Government - State
78800,"SUMMIT SURGICAL, LLC",1818 EAST 23RD AVENUE,HUTCHINSON,KS,67502,RENO,(620) 662-6000,Acute Care Hospitals,Physician
93926,COZAD COMMUNITY HOSPITAL,"P O BOX 108, 300 EAST 12TH ST",COZAD,NE,69130,DAWSON,(308) 784-2261,Critical Access Hospitals,Government - Hospital District or Authority
28899,DELTA COUNTY MEMORIAL HOSPITAL,1501 E 3RD ST,DELTA,CO,81416,DELTA,(970) 874-7681,Acute Care Hospitals,Government - Local
16429,HOUSTON METHODIST THE WOODLANDS HOSPITAL,17201 INTERSTATE 45 SOUTH,THE WOODLANDS,TX,77385,MONTGOMERY,(936) 270-2000,Acute Care Hospitals,Voluntary non-profit - Private
90766,HARDIN MEMORIAL HOSPITAL,913 NORTH DIXIE AVENUE,ELIZABETHTOWN,KY,42701,HARDIN,(270) 737-1212,Acute Care Hospitals,Government - Local
29354,ASCENSION STANDISH HOSPITAL,805 W CEDAR ST,STANDISH,MI,48658,ARENAC,(517) 846-4521,Critical Access Hospitals,Voluntary non-profit - Church
30159,RIVERSIDE MEDICAL CENTER,1900 SOUTH MAIN ST,FRANKLINTON,LA,70438,WASHINGTON,(985) 795-4431,Critical Access Hospitals,Government - Hospital District or Authority
78170,ATRIUM MEDICAL CENTER,ONE MEDICAL CENTER DRIVE,FRANKLIN,OH,45005,WARREN,(513) 420-5102,Acute Care Hospitals,Voluntary non-profit - Private
72203,CONWAY MEDICAL CENTER,300 SINGLETON RIDGE ROAD,CONWAY,SC,29526,HORRY,(843) 347-8037,Acute Care Hospitals,Voluntary non-profit - Private
87074,IRON COUNTY MEDICAL CENTER,301 NORTH HIGHWAY 21,PILOT KNOB,MO,63663,IRON,(573) 546-1260,Critical Access Hospitals,Government - Hospital District or Authority
91635,METHODIST MANSFIELD MEDICAL CENTER,2700 E BROAD STREET,MANSFIELD,TX,76063,TARRANT,(682) 622-2059,Acute Care Hospitals,Voluntary non-profit - Private
27812,CONFLUENCE HEALTH- WENATCHEE VALLEY HOSP & CLINICS,820 NORTH CHELAN AVENUE,WENATCHEE,WA,98801,CHELAN,(509) 663-8711,Acute Care Hospitals,Voluntary non-profit - Private
18074,"OUR LADY OF LOURDES REGIONAL MEDICAL CENTER, INC",4801 AMBASSADOR CAFFERY PARKWAY,LAFAYETTE,LA,70508,LAFAYETTE,(337) 470-2100,Acute Care Hospitals,Voluntary non-profit - Private
51511,GRINNELL REGIONAL MEDICAL CENTER,210 FOURTH AVENUE,GRINNELL,IA,50112,POWESHIEK,(641) 236-7511,Acute Care Hospitals,Voluntary non-profit - Private
81417,MARSHFIELD MEDICAL CENTER,611 ST JOSEPH AVE,MARSHFIELD,WI,54449,WOOD,(715) 387-7850,Acute Care Hospitals,Voluntary non-profit - Church
18357,WILMINGTON TREATMENT CENTER,2520 TROY DRIVE,WILMINGTON,NC,28401,NEW HANOVER,(910) 762-2727,Acute Care Hospitals,Voluntary non-profit - Private
50733,LEWISGALE HOSPITAL ALLEGHANY,ONE ARH LANE - PO BOX 7,LOW MOOR,VA,24457,ALLEGHANY,(540) 862-6011,Acute Care Hospitals,Voluntary non-profit - Private
86511,MARY HURLEY HOSPITAL,6 NORTH COVINGTON,COALGATE,OK,74538,COAL,(580) 927-2327,Critical Access Hospitals,Proprietary
35729,UPSON REGIONAL MEDICAL CENTER,801 W GORDON STREET,THOMASTON,GA,30286,UPSON,(706) 647-8111,Acute Care Hospitals,Voluntary non-profit - Other
41396,ST CATHERINE HOSPITAL,401 EAST SPRUCE,GARDEN CITY,KS,67846,FINNEY,(620) 272-2222,Acute Care Hospitals,Voluntary non-profit - Private
83291,BRISTOL HOSPITAL,BREWSTER RD,BRISTOL,CT,6010,HARTFORD,(860) 585-3000,Acute Care Hospitals,Voluntary non-profit - Private
94807,ROBERT WOOD JOHNSON UNIVERSITY HOSPITAL AT RAHWAY,865 STONE ST,RAHWAY,NJ,7065,UNION,(732) 381-4200,Acute Care Hospitals,Voluntary non-profit - Private
57706,PIEDMONT NEWTON HOSPITAL,5126 HOSPITAL DRIVE NE,COVINGTON,GA,30014,NEWTON,(770) 786-7053,Acute Care Hospitals,Voluntary non-profit - Private
81492,ARROWHEAD BEHAVIORAL HEALTH,1725 TIMBER LINE ROAD,MAUMEE,OH,43537,LUCAS,(419) 891-9333,Psychiatric,Proprietary
51110,HIGGINS GENERAL HOSPITAL,200 ALLEN MEMORIAL DRIVE,BREMEN,GA,30110,HARALSON,(770) 812-2000,Critical Access Hospitals,Government - Hospital District or Authority
40331,RUSH COPLEY MEDICAL CENTER,2000 OGDEN AVENUE,AURORA,IL,60504,KANE,(630) 978-6200,Acute Care Hospitals,Voluntary non-profit - Private
73276,UNITED HOSPITAL,333 NORTH SMITH AVENUE,SAINT PAUL,MN,55102,RAMSEY,(651) 241-8810,Acute Care Hospitals,Voluntary non-profit - Private
63941,ST CROIX REGIONAL MEDICAL CENTER,235 STATE STREET,SAINT CROIX FALLS,WI,54024,POLK,(715) 483-0556,Critical Access Hospitals,Voluntary non-profit - Private
50037,BOTHWELL REGIONAL HEALTH CENTER,601 E 14TH ST,SEDALIA,MO,65302,PETTIS,(660) 826-8833,Acute Care Hospitals,Government - Local
80785,LOURDES COUNSELING CENTER,1175 CARONDELET DRIVE,RICHLAND,WA,99352,BENTON,(509) 943-9104,Psychiatric,Voluntary non-profit - Private
21705,BEACHAM MEMORIAL HOSPITAL,205 N CHERRY STREET,MAGNOLIA,MS,39652,PIKE,(601) 783-2353,Acute Care Hospitals,Proprietary
21182,CEDAR RIDGE BEHAVIORAL HOSPITAL,6501 NORTHEAST 50TH STREET,OKLAHOMA CITY,OK,73141,OKLAHOMA,(405) 605-6111,Psychiatric,Proprietary
79536,KAISER FOUNDATION HOSPITAL - SOUTH SAN FRANCISCO,1200 EL CAMINO REAL,SOUTH SAN FRANCISCO,CA,94080,SAN MATEO,(650) 742-3200,Acute Care Hospitals,Voluntary non-profit - Private
29353,HILLCREST HOSPITAL CUSHING,1027 EAST CHERRY STREET,CUSHING,OK,74023,PAYNE,(918) 225-2915,Acute Care Hospitals,Proprietary
51172,CENTERPOINT MEDICAL CENTER,19600 EAST 39TH STREET,INDEPENDENCE,MO,64057,JACKSON,(816) 698-7000,Acute Care Hospitals,Proprietary
43091,CJW MEDICAL CENTER,7101 JAHNKE ROAD,RICHMOND,VA,23235,CHESTERFIELD,(804) 320-3911,Acute Care Hospitals,Proprietary
46216,ATHOL MEMORIAL HOSPITAL,2033 MAIN STREET,ATHOL,MA,1331,WORCESTER,(978) 249-3511,Critical Access Hospitals,Voluntary non-profit - Private
89660,BRONSON LAKEVIEW HOSPITAL,408 HAZEN STREET,PAW PAW,MI,49079,VAN BUREN,(269) 657-1400,Critical Access Hospitals,Voluntary non-profit - Private
44468,METRO-EAST SERVICES INC,1404 CROSS STREET,SHILOH,IL,62269,ST. CLAIR,(618) 607-1000,Acute Care Hospitals,Voluntary non-profit - Private
52858,PAUL B HALL REGIONAL MEDICAL CENTER,625 JAMES S TRIMBLE BOULEVARD,PAINTSVILLE,KY,41240,JOHNSON,(606) 789-3511,Acute Care Hospitals,Proprietary
66059,SAINT JOHN HOSPITAL,3500 SOUTH 4TH STREET,LEAVENWORTH,KS,66048,LEAVENWORTH,(913) 680-6000,Acute Care Hospitals,Voluntary non-profit - Other
61264,AVENTURA HOSPITAL AND MEDICAL CENTER,20900 BISCAYNE BLVD,AVENTURA,FL,33180,MIAMI-DADE,(305) 682-7000,Acute Care Hospitals,Voluntary non-profit - Private
42794,CHAMPLAIN VALLEY PHYSICIANS HOSPITAL MEDICAL CTR,75 BEEKMAN STREET,PLATTSBURGH,NY,12901,CLINTON,(518) 562-7767,Acute Care Hospitals,Voluntary non-profit - Private
40930,GULF COAST REGIONAL MEDICAL CENTER,449 W 23RD ST,PANAMA CITY,FL,32405,BAY,(850) 769-8341,Acute Care Hospitals,Proprietary
72127,WEST VALLEY MEDICAL CENTER,1717 ARLINGTON STREET,CALDWELL,ID,83605,CANYON,(208) 459-4641,Acute Care Hospitals,Proprietary
56737,UVALDE MEMORIAL HOSPITAL,1025 GARNER FIELD ROAD,UVALDE,TX,78801,UVALDE,(830) 278-6251,Critical Access Hospitals,Government - Hospital District or Authority
31603,CLEVELAND CLINIC INDIAN RIVER HOSPITAL,1000 36TH ST,VERO BEACH,FL,32960,INDIAN RIVER,(772) 567-4311,Acute Care Hospitals,Voluntary non-profit - Private
13501,UT HEALTH EAST TEXAS CARTHAGE HOSPITAL,409 COTTAGE RD,CARTHAGE,TX,75633,PANOLA,(093) 693-3841,Acute Care Hospitals,Voluntary non-profit - Private
36150,SOUTHEAST COLORADO HOSPITAL,373 E TENTH AVE,SPRINGFIELD,CO,81073,BACA,(719) 523-4501,Critical Access Hospitals,Government - Hospital District or Authority
45689,"SAINT JOSEPH'S HOSPITAL OF ATLANTA, INC",5665 PEACHTREE DUNWOODY ROAD,ATLANTA,GA,30342,FULTON,(678) 843-5720,Acute Care Hospitals,Voluntary non-profit - Private
92119,CEDAR CREEK HOSPITAL,101 WEST TOWNSEND ROAD,SAINT JOHNS,MI,48879,CLINTON,(989) 403-6022,Psychiatric,Proprietary
60694,MERCY HOSPITAL ADA,430 NORTH MONTE VISTA,ADA,OK,74820,PONTOTOC,(580) 332-2323,Acute Care Hospitals,Voluntary non-profit - Private
94480,SSM HEALTH SAINT JOSEPH HOSPITAL-LAKE SAINT LOUIS,100 MEDICAL PLAZA,LAKE SAINT LOUIS,MO,63367,ST. CHARLES,(636) 625-5200,Acute Care Hospitals,Voluntary non-profit - Church
44374,SUN BEHAVIORAL DELAWARE LLC,21655 BIDEN AVENUE,GEORGETOWN,DE,19947,SUSSEX,(302) 448-8415,Psychiatric,Proprietary
27152,SOUTH SHORE HOSPITAL,8012 SOUTH CRANDON AVENUE,CHICAGO,IL,60617,COOK,(773) 356-5000,Acute Care Hospitals,Voluntary non-profit - Private
67488,FORBES HOSPITAL,2570 HAYMAKER ROAD,MONROEVILLE,PA,15146,ALLEGHENY,(412) 858-2000,Acute Care Hospitals,Voluntary non-profit - Private
64874,COMMUNITY BEHAVIORAL HEALTH HOSPITAL ANNANDALE,400 ANNANDALE BOULEVARD,ANNANDALE,MN,55302,WRIGHT,(651) 259-3850,Psychiatric,Government - State
66445,BIG SKY MEDICAL CENTER,334 TOWN CENTER AVE,BIG SKY,MT,59716,GALLATIN,(406) 995-6995,Acute Care Hospitals,Voluntary non-profit - Private
36993,WASHINGTON HEALTH SYSTEM GREENE,350 BONAR AVENUE,WAYNESBURG,PA,15370,GREENE,(724) 627-2602,Acute Care Hospitals,Voluntary non-profit - Private
17350,WINCHESTER HOSPITAL,41 HIGHLAND AVENUE,WINCHESTER,MA,1890,MIDDLESEX,(781) 729-9000,Acute Care Hospitals,Voluntary non-profit - Private
58384,RIVER POINT BEHAVIORAL HEALTH,6300 BEACH BLVD,JACKSONVILLE,FL,32216,DUVAL,(904) 724-9202,Psychiatric,Proprietary
83895,GRADY MEMORIAL HOSPITAL,561 WEST CENTRAL AVENUE,DELAWARE,OH,43015,DELAWARE,(740) 368-5145,Acute Care Hospitals,Voluntary non-profit - Private
33496,DAY KIMBALL HOSPITAL,320 POMFRET STREET,PUTNAM,CT,6260,WINDHAM,(860) 928-6541,Acute Care Hospitals,Voluntary non-profit - Private
31921,LARKIN COMMUNITY HOSPITAL BEHAVIORAL HEALTH SRVS,1201 N 37TH AVE,HOLLYWOOD,FL,33021,BROWARD,(954) 962-1355,Psychiatric,Proprietary
48361,MEMORIAL HOSPITAL PEMBROKE,7800 SHERIDAN ST,PEMBROKE PINES,FL,33024,BROWARD,(954) 962-9650,Acute Care Hospitals,Government - Hospital District or Authority
43879,FIRSTLIGHT HEALTH SYSTEM,301 SOUTH HIGHWAY 65,MORA,MN,55051,KANABEC,(320) 679-1212,Critical Access Hospitals,Government - Local
50896,PARKVIEW NOBLE HOSPITAL,401 SAWYER RD,KENDALLVILLE,IN,46755,NOBLE,(260) 347-8700,Acute Care Hospitals,Voluntary non-profit - Private
53076,RUSH FOUNDATION HOSPITAL,1314 19TH AVE,MERIDIAN,MS,39301,LAUDERDALE,(601) 483-0011,Acute Care Hospitals,Voluntary non-profit - Private
22116,SOUTHERN COOS HOSPITAL & HEALTH CENTER,900 11TH STREET SE,BANDON,OR,97411,COOS,(541) 347-2426,Critical Access Hospitals,Government - Hospital District or Authority
40837,ST JOSEPH REGIONAL HEALTH CENTER,2801 FRANCISCAN DR,BRYAN,TX,77802,BRAZOS,(979) 776-3912,Acute Care Hospitals,Voluntary non-profit - Private
46625,ST ANTHONY HOSPITAL,11567 CANTERWOOD BOULEVARD NW,GIG HARBOR,WA,98332,PIERCE,(253) 530-2050,Acute Care Hospitals,Voluntary non-profit - Church
12318,CARILION TAZEWELL COMMUNITY HOSPITAL,388 BEN BOLT AVENUE,TAZEWELL,VA,24651,TAZEWELL,(276) 988-8700,Acute Care Hospitals,Voluntary non-profit - Other
94571,ADVOCATE CHRIST HOSPITAL & MEDICAL CENTER,4440 W 95TH STREET,OAK LAWN,IL,60453,COOK,(708) 684-8000,Acute Care Hospitals,Voluntary non-profit - Church
34570,RICHMOND STATE HOSPITAL,498 NW 18TH ST,RICHMOND,IN,47374,WAYNE,(765) 966-0511,Psychiatric,Proprietary
42342,CAPE COD & ISLANDS COMMUNITY MENTAL HEALTH CENTER,830 COUNTY ROAD,POCASSET,MA,2559,BARNSTABLE,(508) 563-2276,Psychiatric,Government - State
90153,LOST RIVERS MEDICAL CENTER,551 HIGHLAND DRIVE,ARCO,ID,83213,BUTTE,(208) 252-7654,Critical Access Hospitals,Government - Hospital District or Authority
32680,HOUSTON COUNTY COMMUNITY HOSPITAL,5001 EAST MAIN STREET,ERIN,TN,37061,HOUSTON,(931) 289-4211,Critical Access Hospitals,Government - Local
20651,CHRISTUS MOTHER FRANCES HOSPITAL,800 EAST DAWSON,TYLER,TX,75701,SMITH,(903) 593-8441,Acute Care Hospitals,Voluntary non-profit - Private
58001,CONWAY BEHAVIORAL HEALTH,2255 STURGIS ROAD,CONWAY,AR,72034,FAULKNER,(501) 205-0011,Psychiatric,Proprietary
83177,WADLEY REGIONAL MEDICAL CENTER AT HOPE,2001 SOUTH MAIN,HOPE,AR,71801,HEMPSTEAD,(870) 722-3800,Acute Care Hospitals,Proprietary
80709,COLISEUM MEDICAL CENTERS,350 HOSPITAL DRIVE,MACON,GA,31217,BIBB,(478) 765-7000,Acute Care Hospitals,Voluntary non-profit - Private
55946,BAYFRONT HEALTH PUNTA GORDA,809 E MARION AVE,PUNTA GORDA,FL,33950,CHARLOTTE,(941) 639-3131,Acute Care Hospitals,Proprietary
24066,SAN ANTONIO REGIONAL HOSPITAL,999 SAN BERNARDINO ROAD,UPLAND,CA,91786,SAN BERNARDINO,(714) 985-2811,Acute Care Hospitals,Voluntary non-profit - Other
16246,SMYTH COUNTY COMMUNITY HOSPITAL,245 MEDICAL PARK DRIVE,MARION,VA,24354,SMYTH,(276) 378-1000,Acute Care Hospitals,Voluntary non-profit - Private
68300,SOUTH TEXAS SPINE AND SURGICAL HOSPITAL,18600 NORTH HARDY OAK BLVD,SAN ANTONIO,TX,78258,BEXAR,(210) 404-0800,Acute Care Hospitals,Government - Hospital District or Authority
57044,HARRISON COUNTY HOSPITAL,1141 HOSPITAL DR NW,CORYDON,IN,47112,HARRISON,(812) 738-4251,Critical Access Hospitals,Government - Local
30651,ORTHOCOLORADO HOSPITAL AT ST ANTHONY MED CAMPUS,11650 WEST 2ND PLACE,LAKEWOOD,CO,80228,JEFFERSON,(720) 321-5000,Acute Care Hospitals,Proprietary
46893,PROVIDENCE HOLY FAMILY HOSPITAL,5633 NORTH LIDGERWOOD,SPOKANE,WA,99208,SPOKANE,(509) 482-2450,Acute Care Hospitals,Voluntary non-profit - Private
23814,SEATTLE CHILDREN'S HOSPITAL,"4800 SAND POINT WAY NE, PO BOX C-5371",SEATTLE,WA,98105,KING,(206) 987-2000,Childrens,Voluntary non-profit - Private
57151,JEFF DAVIS HOSPITAL,163 SOUTH TALLAHASSEE STREET,HAZLEHURST,GA,31539,JEFF DAVIS,(912) 375-7781,Critical Access Hospitals,Government - Hospital District or Authority
40717,FLOWERS HOSPITAL,4370 WEST MAIN STREET,DOTHAN,AL,36305,HOUSTON,(334) 793-5000,Acute Care Hospitals,Proprietary
63468,MERCYONE OELWEIN MEDICAL CENTER,201 EIGHTH AVENUE SE,OELWEIN,IA,50662,FAYETTE,(319) 283-6000,Critical Access Hospitals,Voluntary non-profit - Church
92334,CHARLES A DEAN MEMORIAL HOSPITAL,PO BOX 1129,GREENVILLE,ME,4441,PISCATAQUIS,(207) 695-5200,Critical Access Hospitals,Voluntary non-profit - Private
76323,ATHENS LIMESTONE HOSPITAL,700 WEST MARKET STREET,ATHENS,AL,35611,LIMESTONE,(256) 233-9292,Acute Care Hospitals,Government - Hospital District or Authority
32436,KAHI MOHALA,91-2301 FORT WEAVER ROAD,EWA BEACH,HI,96706,HONOLULU,(808) 671-8511,Psychiatric,Voluntary non-profit - Private
40141,FOOTHILL REGIONAL MEDICAL CENTER,14662 NEWPORT AVE,TUSTIN,CA,92780,ORANGE,(714) 619-7700,Acute Care Hospitals,Proprietary
50553,STEPHENS MEMORIAL HOSPITAL,181 MAIN STREET,NORWAY,ME,4268,OXFORD,(207) 743-5933,Critical Access Hospitals,Voluntary non-profit - Private
78252,ABRAZO ARROWHEAD CAMPUS,18701 NORTH 67TH AVENUE,GLENDALE,AZ,85308,MARICOPA,(623) 561-1000,Acute Care Hospitals,Proprietary
26309,STAR VALLEY MEDICAL CENTER,901 ADAMS STREET,AFTON,WY,83110,LINCOLN,(307) 885-5800,Critical Access Hospitals,Government - Hospital District or Authority
21297,PALISADES MEDICAL CENTER,7600 RIVER RD,NORTH BERGEN,NJ,7047,HUDSON,(201) 854-5000,Acute Care Hospitals,Voluntary non-profit - Private
62834,ST VINCENT ANDERSON REGIONAL HOSPITAL INC,2015 JACKSON ST,ANDERSON,IN,46016,MADISON,(765) 646-8373,Acute Care Hospitals,Voluntary non-profit - Private
88606,BOWDLE HOSPITAL - CAH,8001 W 5TH  POST OFFICE BOX 556,BOWDLE,SD,57428,EDMUNDS,(605) 285-6146,Critical Access Hospitals,Government - Local
93761,"COFFEYVILLE REGIONAL MEDICAL CENTER, INC",1400 W 4TH ST,COFFEYVILLE,KS,67337,MONTGOMERY,(620) 251-1200,Acute Care Hospitals,Government - Local
26289,ALFRED I DUPONT HOSPITAL FOR CHILDREN,1600 ROCKLAND RD PO BOX 269,WILMINGTON,DE,19899,NEW CASTLE,(302) 651-4000,Childrens,Voluntary non-profit - Private
12880,KAISER FOUNDATION HOSPITAL - BALDWIN PARK,1011 BALDWIN PARK BLVD,BALDWIN PARK,CA,91706,LOS ANGELES,(626) 851-1011,Acute Care Hospitals,Voluntary non-profit - Other
74747,REGIONAL HEALTH SERVICES OF HOWARD COUNTY,235 8TH AVENUE WEST,CRESCO,IA,52136,HOWARD,(563) 547-2101,Critical Access Hospitals,Government - Local
91868,EMANUEL MEDICAL CENTER,825 DELBON AVE,TURLOCK,CA,95382,STANISLAUS,(209) 667-4200,Acute Care Hospitals,Voluntary non-profit - Church
38809,INDIANA UNIVERSITY HEALTH,1701 N SENATE BLVD,INDIANAPOLIS,IN,46202,MARION,(317) 962-5900,Acute Care Hospitals,Voluntary non-profit - Private
11514,GLENBEIGH HEALTH SOURCES,2863 STATE ROUTE 45,ROCK CREEK,OH,44084,ASHTABULA,(440) 563-3400,Acute Care Hospitals,Voluntary non-profit - Private
10813,ARKANSAS STATE HOSPITAL,305 S PALM STREET,LITTLE ROCK,AR,72205,PULASKI,(501) 686-9000,Psychiatric,Government - State
52387,BROOKWOOD BAPTIST MEDICAL CENTER,2010 BROOKWOOD MEDICAL CENTER DRIVE,BIRMINGHAM,AL,35209,JEFFERSON,(205) 877-1000,Acute Care Hospitals,Proprietary
94662,SSM HEALTH ST ANTHONY HOSPITAL - SHAWNEE,1102 W MACARTHUR,SHAWNEE,OK,74804,POTTAWATOMIE,(405) 878-8110,Acute Care Hospitals,Voluntary non-profit - Private
22530,HENDERSON HOSPITAL,1050 WEST GALLERIA DRIVE,HENDERSON,NV,89011,CLARK,(318) 290-4395,Acute Care Hospitals,Proprietary
31464,INDIAN PATH COMMUNITY HOSPITAL,2000 BROOKSIDE DR,KINGSPORT,TN,37660,SULLIVAN,(423) 431-1941,Acute Care Hospitals,Voluntary non-profit - Private
79667,HOSPITAL MENONITA DE CAYEY,BO. RINCON SECTOR LAS LOMAS  KM.3.1 CARR 14,CAYEY,PR,737,CAYEY,(787) 535-1001,Acute Care Hospitals,Voluntary non-profit - Private
68073,HILLCREST HOSPITAL HENRYETTA,2401 W MAIN,HENRYETTA,OK,74437,OKMULGEE,(918) 650-1511,Acute Care Hospitals,Proprietary
44763,COVENANT HOSPITAL PLAINVIEW,2601 DIMMITT RD,PLAINVIEW,TX,79072,HALE,(806) 296-5531,Acute Care Hospitals,Voluntary non-profit - Private
63857,LEHIGH VALLEY HOSPITAL - HAZLETON,700 EAST BROAD STREET,HAZLETON,PA,18201,LUZERNE,(570) 501-4000,Acute Care Hospitals,Government - Local
41427,HOSPITAL METROPOLITANO DE LA MONTANA,CALLE ISAAC GONZALEZ ESQUINA LEDESMA,BDA NUEVA,PR,641,UTUADO,(787) 933-1100,Acute Care Hospitals,Proprietary
27438,SIERRA VIEW MEDICAL CENTER,465 W PUTNAM AVE,PORTERVILLE,CA,93257,TULARE,(559) 784-1110,Acute Care Hospitals,Voluntary non-profit - Private
55264,NYU LANGONE HOSPITALS,550 FIRST AVENUE,NEW YORK,NY,10016,NEW YORK,(212) 263-7300,Acute Care Hospitals,Voluntary non-profit - Private
68754,EAST ORANGE GENERAL HOSPITAL,300 CENTRAL AVE,EAST ORANGE,NJ,7018,ESSEX,(973) 266-4401,Acute Care Hospitals,Voluntary non-profit - Private
19984,KINGS COUNTY HOSPITAL CENTER,451 CLARKSON AVENUE,BROOKLYN,NY,11203,KINGS,(718) 245-3901,Acute Care Hospitals,Government - Local
28059,LITTLE COLORADO MEDICAL CENTER,1501 NORTH WILLIAMSON AVENUE,WINSLOW,AZ,86047,NAVAJO,(928) 289-4691,Critical Access Hospitals,Voluntary non-profit - Private
13733,AHMC ANAHEIM REGIONAL MEDICAL CENTER,1111 W LA PALMA AVENUE,ANAHEIM,CA,92801,ORANGE,(714) 774-1450,Acute Care Hospitals,Voluntary non-profit - Private
64201,DENVER HEALTH MEDICAL CENTER,777 BANNOCK ST,DENVER,CO,80204,DENVER,(303) 602-4930,Acute Care Hospitals,Government - State
82255,WILKES REGIONAL MEDICAL CENTER,1370 WEST D ST,NORTH WILKESBORO,NC,28659,WILKES,(336) 651-8100,Acute Care Hospitals,Government - Local
34525,MCLEOD HEALTH CLARENDON,10 EAST HOSPITAL STREET,MANNING,SC,29102,CLARENDON,(803) 435-8463,Acute Care Hospitals,Voluntary non-profit - Private
43938,GRANDE RONDE HOSPITAL,900 SUNSET DRIVE,LA GRANDE,OR,97850,UNION,(541) 963-8421,Critical Access Hospitals,Voluntary non-profit - Private
82390,SUTTER LAKESIDE HOSPITAL,5176 HILL ROAD EAST,LAKEPORT,CA,95453,LAKE,(707) 262-5000,Critical Access Hospitals,Voluntary non-profit - Private
80166,BOX BUTTE GENERAL HOSPITAL,"P O BOX 810, 2101 BOX BUTTE AVE",ALLIANCE,NE,69301,BOX BUTTE,(308) 762-6660,Critical Access Hospitals,Government - Local
30048,SUN BEHAVIORAL HOUSTON,7601 FANNIN STREET,HOUSTON,TX,77054,HARRIS,(713) 795-5025,Psychiatric,Proprietary
58850,MEMORIAL MEDICAL CENTER LIVINGSTON,1717 HWY 59 BYPASS,LIVINGSTON,TX,77351,POLK,(936) 327-4381,Acute Care Hospitals,Voluntary non-profit - Private
28318,MERIT HEALTH WESLEY,5001 W HARDY ST,HATTIESBURG,MS,39402,LAMAR,(601) 268-8000,Acute Care Hospitals,Voluntary non-profit - Private
47637,JAMAICA HOSPITAL MEDICAL CENTER,89TH AVENUE AND VAN WYCK EXPRESSWAY,JAMAICA,NY,11418,QUEENS,(718) 262-6000,Acute Care Hospitals,Voluntary non-profit - Private
67914,HI-DESERT MEDICAL CENTER,6601 WHITE FEATHER ROAD,JOSHUA TREE,CA,92252,SAN BERNARDINO,(760) 366-3711,Acute Care Hospitals,Government - Hospital District or Authority
74961,TEXAS HEALTH HARRIS METHODIST HOSPITAL CLEBURNE,201 WALLS DRIVE,CLEBURNE,TX,76033,JOHNSON,(817) 641-2551,Acute Care Hospitals,Voluntary non-profit - Church
67167,DR DAN C TRIGG MEMORIAL HOSPITAL,301 EAST MIEL DE LUNA AVENUE,TUCUMCARI,NM,88401,QUAY,(575) 461-7007,Critical Access Hospitals,Voluntary non-profit - Private
65371,CHILDRESS REGIONAL MEDICAL CENTER,HWY 83 NORTH,CHILDRESS,TX,79201,CHILDRESS,(940) 937-6371,Acute Care Hospitals,Government - Hospital District or Authority
27661,SISTERSVILLE GENERAL HOSPITAL,314 SOUTH WELLS STREET,SISTERSVILLE,WV,26175,TYLER,(304) 652-2611,Critical Access Hospitals,Government - Local
